STARLINK-31439          
1 59178U 24045A   26068.45497195  .00002141  00000+0  87308-4 0  9998
2 59178  43.0026  90.5713 0001622 262.8201  97.2467 15.27578457 49496
FLOCK 4G-21             
1 62651U 25009AU  26068.19487675  .00013648  00000+0  49619-3 0  9998
2 62651  97.4032 151.1274 0000465 329.5782  30.5431 15.28381075 63677
